{"fetched_at":"2026-03-30T06:02:59Z","count":15439,"tles":[{"name":"STARLINK-11274 [DTC]","line1":"1 61001U 24158M   26087.58470051  .00003888  00000+0  36947-4 0  9990","line2":"2 61001  53.1601 188.0164 0000917 100.1742 259.9379 15.69702267 90554","category":"Starlink"}]}